CCSDS_OMM_VERS = 2.0
CREATION_DATE  = 
ORIGINATOR     = 

OBJECT_NAME    = JACK E
OBJECT_ID      = 2025-274E
CENTER_NAME    = EARTH
REF_FRAME      = TEME
TIME_SYSTEM    = UTC
MEAN_ELEMENT_THEORY = SGP/SGP4

EPOCH          = 2025-12-01T08:20:05.436096
MEAN_MOTION    = 14.91977793
ECCENTRICITY   = .0011957
INCLINATION    = 97.7374
RA_OF_ASC_NODE = 262.7483
ARG_OF_PERICENTER = 298.5644
MEAN_ANOMALY   = 61.4371

EPHEMERIS_TYPE = 0
CLASSIFICATION_TYPE = U
NORAD_CAT_ID   = 66654
ELEMENT_SET_NO = 999
REV_AT_EPOCH   = 70
BSTAR          = .40149E-3
MEAN_MOTION_DOT = .4017E-4
MEAN_MOTION_DDOT = 0

CCSDS_OMM_VERS = 2.0
CREATION_DATE  = 
ORIGINATOR     = 

OBJECT_NAME    = 2025-274F
OBJECT_ID      = 2025-274F
CENTER_NAME    = EARTH
REF_FRAME      = TEME
TIME_SYSTEM    = UTC
MEAN_ELEMENT_THEORY = SGP/SGP4

EPOCH          = 2025-12-01T05:06:31.682016
MEAN_MOTION    = 14.92144485
ECCENTRICITY   = .0008131
INCLINATION    = 97.7348
RA_OF_ASC_NODE = 262.6173
ARG_OF_PERICENTER = 324.5883
MEAN_ANOMALY   = 35.4795

EPHEMERIS_TYPE = 0
CLASSIFICATION_TYPE = U
NORAD_CAT_ID   = 66655
ELEMENT_SET_NO = 999
REV_AT_EPOCH   = 68
BSTAR          = .38761E-3
MEAN_MOTION_DOT = .389E-4
MEAN_MOTION_DDOT = 0

CCSDS_OMM_VERS = 2.0
CREATION_DATE  = 
ORIGINATOR     = 

OBJECT_NAME    = 2025-274G
OBJECT_ID      = 2025-274G
CENTER_NAME    = EARTH
REF_FRAME      = TEME
TIME_SYSTEM    = UTC
MEAN_ELEMENT_THEORY = SGP/SGP4

EPOCH          = 2025-12-01T08:19:17.249088
MEAN_MOTION    = 14.92157780
ECCENTRICITY   = .001265
INCLINATION    = 97.7372
RA_OF_ASC_NODE = 262.7489
ARG_OF_PERICENTER = 299.9627
MEAN_ANOMALY   = 60.0336

EPHEMERIS_TYPE = 0
CLASSIFICATION_TYPE = U
NORAD_CAT_ID   = 66656
ELEMENT_SET_NO = 999
REV_AT_EPOCH   = 70
BSTAR          = .43698E-3
MEAN_MOTION_DOT = .4398E-4
MEAN_MOTION_DDOT = 0

CCSDS_OMM_VERS = 2.0
CREATION_DATE  = 
ORIGINATOR     = 

OBJECT_NAME    = SPIRONE
OBJECT_ID      = 2025-274H
CENTER_NAME    = EARTH
REF_FRAME      = TEME
TIME_SYSTEM    = UTC
MEAN_ELEMENT_THEORY = SGP/SGP4

EPOCH          = 2025-12-01T08:18:29.938176
MEAN_MOTION    = 14.92338416
ECCENTRICITY   = .001132
INCLINATION    = 97.7370
RA_OF_ASC_NODE = 262.7496
ARG_OF_PERICENTER = 318.8776
MEAN_ANOMALY   = 41.1589

EPHEMERIS_TYPE = 0
CLASSIFICATION_TYPE = U
NORAD_CAT_ID   = 66657
ELEMENT_SET_NO = 999
REV_AT_EPOCH   = 70
BSTAR          = .43957E-3
MEAN_MOTION_DOT = .4443E-4
MEAN_MOTION_DDOT = 0

CCSDS_OMM_VERS = 2.0
CREATION_DATE  = 
ORIGINATOR     = 

OBJECT_NAME    = 2025-274J
OBJECT_ID      = 2025-274J
CENTER_NAME    = EARTH
REF_FRAME      = TEME
TIME_SYSTEM    = UTC
MEAN_ELEMENT_THEORY = SGP/SGP4

EPOCH          = 2025-12-01T06:41:09.852864
MEAN_MOTION    = 14.92513129
ECCENTRICITY   = .0011927
INCLINATION    = 97.7371
RA_OF_ASC_NODE = 262.6844
ARG_OF_PERICENTER = 321.7565
MEAN_ANOMALY   = 38.2807

EPHEMERIS_TYPE = 0
CLASSIFICATION_TYPE = U
NORAD_CAT_ID   = 66658
ELEMENT_SET_NO = 999
REV_AT_EPOCH   = 69
BSTAR          = .40035E-3
MEAN_MOTION_DOT = .406E-4
MEAN_MOTION_DDOT = 0

CCSDS_OMM_VERS = 2.0
CREATION_DATE  = 
ORIGINATOR     = 

OBJECT_NAME    = JACK K
OBJECT_ID      = 2025-274K
CENTER_NAME    = EARTH
REF_FRAME      = TEME
TIME_SYSTEM    = UTC
MEAN_ELEMENT_THEORY = SGP/SGP4

EPOCH          = 2025-12-01T08:16:52.149792
MEAN_MOTION    = 14.92700017
ECCENTRICITY   = .0012669
INCLINATION    = 97.7373
RA_OF_ASC_NODE = 262.7513
ARG_OF_PERICENTER = 322.4490
MEAN_ANOMALY   = 37.5843

EPHEMERIS_TYPE = 0
CLASSIFICATION_TYPE = U
NORAD_CAT_ID   = 66659
ELEMENT_SET_NO = 999
REV_AT_EPOCH   = 70
BSTAR          = .4068E-3
MEAN_MOTION_DOT = .4147E-4
MEAN_MOTION_DDOT = 0

CCSDS_OMM_VERS = 2.0
CREATION_DATE  = 
ORIGINATOR     = 

OBJECT_NAME    = K-HERO
OBJECT_ID      = 2025-274L
CENTER_NAME    = EARTH
REF_FRAME      = TEME
TIME_SYSTEM    = UTC
MEAN_ELEMENT_THEORY = SGP/SGP4

EPOCH          = 2025-12-01T06:39:40.754592
MEAN_MOTION    = 14.92850443
ECCENTRICITY   = .0013305
INCLINATION    = 97.7376
RA_OF_ASC_NODE = 262.6861
ARG_OF_PERICENTER = 323.2304
MEAN_ANOMALY   = 36.8001

EPHEMERIS_TYPE = 0
CLASSIFICATION_TYPE = U
NORAD_CAT_ID   = 66660
ELEMENT_SET_NO = 999
REV_AT_EPOCH   = 69
BSTAR          = .44851E-3
MEAN_MOTION_DOT = .4596E-4
MEAN_MOTION_DDOT = 0

CCSDS_OMM_VERS = 2.0
CREATION_DATE  = 
ORIGINATOR     = 

OBJECT_NAME    = SNUGLITE-III DURI
OBJECT_ID      = 2025-274M
CENTER_NAME    = EARTH
REF_FRAME      = TEME
TIME_SYSTEM    = UTC
MEAN_ELEMENT_THEORY = SGP/SGP4

EPOCH          = 2025-12-01T08:15:29.681856
MEAN_MOTION    = 14.93003372
ECCENTRICITY   = .0013982
INCLINATION    = 97.7374
RA_OF_ASC_NODE = 262.7525
ARG_OF_PERICENTER = 323.6837
MEAN_ANOMALY   = 36.3432

EPHEMERIS_TYPE = 0
CLASSIFICATION_TYPE = U
NORAD_CAT_ID   = 66661
ELEMENT_SET_NO = 999
REV_AT_EPOCH   = 70
BSTAR          = .34392E-3
MEAN_MOTION_DOT = .3525E-4
MEAN_MOTION_DDOT = 0

CCSDS_OMM_VERS = 2.0
CREATION_DATE  = 
ORIGINATOR     = 

OBJECT_NAME    = 2025-274N
OBJECT_ID      = 2025-274N
CENTER_NAME    = EARTH
REF_FRAME      = TEME
TIME_SYSTEM    = UTC
MEAN_ELEMENT_THEORY = SGP/SGP4

EPOCH          = 2025-12-01T06:38:40.380000
MEAN_MOTION    = 14.93068151
ECCENTRICITY   = .0014373
INCLINATION    = 97.7376
RA_OF_ASC_NODE = 262.6868
ARG_OF_PERICENTER = 323.2817
MEAN_ANOMALY   = 36.7417

EPHEMERIS_TYPE = 0
CLASSIFICATION_TYPE = U
NORAD_CAT_ID   = 66662
ELEMENT_SET_NO = 999
REV_AT_EPOCH   = 69
BSTAR          = .23858E-3
MEAN_MOTION_DOT = .2432E-4
MEAN_MOTION_DDOT = 0

CCSDS_OMM_VERS = 2.0
CREATION_DATE  = 
ORIGINATOR     = 

OBJECT_NAME    = KSLV-II R/B
OBJECT_ID      = 2025-274P
CENTER_NAME    = EARTH
REF_FRAME      = TEME
TIME_SYSTEM    = UTC
MEAN_ELEMENT_THEORY = SGP/SGP4

EPOCH          = 2025-12-01T09:31:46.282080
MEAN_MOTION    = 14.97210168
ECCENTRICITY   = .0044274
INCLINATION    = 97.7404
RA_OF_ASC_NODE = 262.8490
ARG_OF_PERICENTER = 356.2634
MEAN_ANOMALY   = 3.8251

EPHEMERIS_TYPE = 0
CLASSIFICATION_TYPE = U
NORAD_CAT_ID   = 66663
ELEMENT_SET_NO = 999
REV_AT_EPOCH   = 71
BSTAR          = -.2991E-3
MEAN_MOTION_DOT = -.3589E-4
MEAN_MOTION_DDOT = 0

CCSDS_OMM_VERS = 2.0
CREATION_DATE  = 
ORIGINATOR     = 

OBJECT_NAME    = SOYUZ-MS 28
OBJECT_ID      = 2025-275A
CENTER_NAME    = EARTH
REF_FRAME      = TEME
TIME_SYSTEM    = UTC
MEAN_ELEMENT_THEORY = SGP/SGP4

EPOCH          = 2025-12-01T09:11:04.540416
MEAN_MOTION    = 15.49224672
ECCENTRICITY   = .0003646
INCLINATION    = 51.6310
RA_OF_ASC_NODE = 198.7026
ARG_OF_PERICENTER = 190.2550
MEAN_ANOMALY   = 169.8364

EPHEMERIS_TYPE = 0
CLASSIFICATION_TYPE = U
NORAD_CAT_ID   = 66664
ELEMENT_SET_NO = 999
REV_AT_EPOCH   = 68
BSTAR          = .18108E-3
MEAN_MOTION_DOT = .9617E-4
MEAN_MOTION_DDOT = 0

