2025-274E               
1 66654U 25274E   25335.34728514  .00004017  00000+0  40149-3 0  9991
2 66654  97.7374 262.7483 0011957 298.5644  61.4371 14.91977793   705
2025-274F               
1 66655U 25274F   25335.21286669  .00003890  00000+0  38761-3 0  9993
2 66655  97.7348 262.6173 0008131 324.5883  35.4795 14.92144485   680
2025-274G               
1 66656U 25274G   25335.34672742  .00004398  00000+0  43698-3 0  9998
2 66656  97.7372 262.7489 0012650 299.9627  60.0336 14.92157780   701
2025-274H               
1 66657U 25274H   25335.34617984  .00004443  00000+0  43957-3 0  9995
2 66657  97.7370 262.7496 0011320 318.8776  41.1589 14.92338416   704
2025-274J               
1 66658U 25274J   25335.27858626  .00004060  00000+0  40035-3 0  9997
2 66658  97.7371 262.6844 0011927 321.7565  38.2807 14.92513129   698
2025-274K               
1 66659U 25274K   25335.34504803  .00004147  00000+0  40680-3 0  9993
2 66659  97.7373 262.7513 0012669 322.4490  37.5843 14.92700017   702
2025-274L               
1 66660U 25274L   25335.27755503  .00004596  00000+0  44851-3 0  9994
2 66660  97.7376 262.6861 0013305 323.2304  36.8001 14.92850443   698
2025-274M               
1 66661U 25274M   25335.34409354  .00003525  00000+0  34392-3 0  9993
2 66661  97.7374 262.7525 0013982 323.6837  36.3432 14.93003372   708
2025-274N               
1 66662U 25274N   25335.27685625  .00002432  00000+0  23858-3 0  9994
2 66662  97.7376 262.6868 0014373 323.2817  36.7417 14.93068151   690
KSLV-II R/B             
1 66663U 25274P   25335.39706345 -.00003589  00000+0 -29910-3 0  9992
2 66663  97.7404 262.8490 0044274 356.2634   3.8251 14.97210168   717
SOYUZ-MS 28             
1 66664U 25275A   25335.38269144  .00009617  00000+0  18108-3 0  9997
2 66664  51.6310 198.7026 0003646 190.2550 169.8364 15.49224672   683
